start=new Date('2023-02-13T00:00:00.000Z').valueOf();
sats=[{"GP_ID":"225238290","TIME_SYSTEM":"UTC","INCLINATION":"53.2164","EPHEMERIS_TYPE":"0","ARG_OF_PERICENTER":"114.0428","CLASSIFICATION_TYPE":"U","PERIAPSIS":"538.882","MEAN_MOTION":"15.08845102","TLE_LINE1":"1 53402U 22097Q   23043.48509384  .00006071  00000-0  39911-3 0  9997","MEAN_MOTION_DDOT":"0.0000000000000","EPOCH":"2023-02-12T11:38:32.107776","NORAD_CAT_ID":"53402","MEAN_MOTION_DOT":"0.00006071","LAUNCH_DATE":"2022-08-10","CENTER_NAME":"EARTH","DECAY_DATE":null,"REF_FRAME":"TEME","OBJECT_TYPE":"PAYLOAD","REV_AT_EPOCH":"2925","BSTAR":"0.00039911000000","PERIOD":"95.437","ELEMENT_SET_NO":"999","RCS_SIZE":"LARGE","OBJECT_ID":"2022-097Q","MEAN_ELEMENT_THEORY":"SGP4","SITE":"AFETR","MEAN_ANOMALY":"246.0693","RA_OF_ASC_NODE":"117.4000","ECCENTRICITY":"0.00012250","TLE_LINE2":"2 53402  53.2164 117.4000 0001225 114.0428 246.0693 15.08845102 29252","APOAPSIS":"540.577","OBJECT_NAME":"STARLINK-4499","COUNTRY_CODE":"US","FILE":"3787692","SEMIMAJOR_AXIS":"6917.865"},{"TLE_LINE1":"1 53403U 22097R   23043.49708573  .00001218  00000-0  94608-4 0  9993","EPOCH":"2023-02-12T11:55:48.207072","MEAN_MOTION_DDOT":"0.0000000000000","INCLINATION":"53.2168","GP_ID":"225238540","TIME_SYSTEM":"UTC","PERIAPSIS":"538.869","MEAN_MOTION":"15.08846342","EPHEMERIS_TYPE":"0","ARG_OF_PERICENTER":"114.9476","CLASSIFICATION_TYPE":"U","PERIOD":"95.437","REV_AT_EPOCH":"2925","BSTAR":"0.00009460800000","ELEMENT_SET_NO":"999","LAUNCH_DATE":"2022-08-10","CENTER_NAME":"EARTH","NORAD_CAT_ID":"53403","MEAN_MOTION_DOT":"0.00001218","REF_FRAME":"TEME","DECAY_DATE":null,"OBJECT_TYPE":"PAYLOAD","MEAN_ELEMENT_THEORY":"SGP4","SITE":"AFETR","MEAN_ANOMALY":"245.1645","RCS_SIZE":"LARGE","OBJECT_ID":"2022-097R","COUNTRY_CODE":"US","OBJECT_NAME":"STARLINK-4507","FILE":"3787692","TLE_LINE2":"2 53403  53.2168 117.3496 0001239 114.9476 245.1645 15.08846342 29256","APOAPSIS":"540.583","SEMIMAJOR_AXIS":"6917.861","ECCENTRICITY":"0.00012390","RA_OF_ASC_NODE":"117.3496"},{"NORAD_CAT_ID":"53404","MEAN_MOTION_DOT":"0.00000694","LAUNCH_DATE":"2022-08-10","CENTER_NAME":"EARTH","REF_FRAME":"TEME","DECAY_DATE":null,"OBJECT_TYPE":"PAYLOAD","REV_AT_EPOCH":"2895","BSTAR":"0.00006172700000","PERIOD":"95.438","ELEMENT_SET_NO":"999","TIME_SYSTEM":"UTC","GP_ID":"225274937","INCLINATION":"53.2192","ARG_OF_PERICENTER":"93.4350","EPHEMERIS_TYPE":"0","CLASSIFICATION_TYPE":"U","PERIAPSIS":"538.786","MEAN_MOTION":"15.08831244","TLE_LINE1":"1 53404U 22097S   23043.87242172  .00000694  00000-0  61727-4 0  9997","MEAN_MOTION_DDOT":"0.0000000000000","EPOCH":"2023-02-12T20:56:17.236608","RA_OF_ASC_NODE":"105.6610","ECCENTRICITY":"0.00014260","TLE_LINE2":"2 53404  53.2192 105.6610 0001426  93.4350 266.6805 15.08831244 28959","APOAPSIS":"540.759","COUNTRY_CODE":"US","OBJECT_NAME":"STARLINK-4509","FILE":"3788093","SEMIMAJOR_AXIS":"6917.907","RCS_SIZE":"LARGE","OBJECT_ID":"2022-097S","MEAN_ELEMENT_THEORY":"SGP4","SITE":"AFETR","MEAN_ANOMALY":"266.6805"},{"PERIOD":"95.437","REV_AT_EPOCH":"2878","BSTAR":"0.00024700000000","ELEMENT_SET_NO":"999","CENTER_NAME":"EARTH","LAUNCH_DATE":"2022-08-10","NORAD_CAT_ID":"53405","MEAN_MOTION_DOT":"0.00003647","DECAY_DATE":null,"REF_FRAME":"TEME","OBJECT_TYPE":"PAYLOAD","TLE_LINE1":"1 53405U 22097T   23043.61389070  .00003647  00000-0  24700-3 0  9999","EPOCH":"2023-02-12T14:44:00.156480","MEAN_MOTION_DDOT":"0.0000000000000","INCLINATION":"53.2159","TIME_SYSTEM":"UTC","GP_ID":"225212273","PERIAPSIS":"538.904","MEAN_MOTION":"15.08851662","EPHEMERIS_TYPE":"0","ARG_OF_PERICENTER":"92.5612","CLASSIFICATION_TYPE":"U","OBJECT_NAME":"STARLINK-4510","COUNTRY_CODE":"US","FILE":"3787670","TLE_LINE2":"2 53405  53.2159 116.8278 0001165  92.5612 267.5514 15.08851662 28782","APOAPSIS":"540.516","SEMIMAJOR_AXIS":"6917.845","ECCENTRICITY":"0.00011650","RA_OF_ASC_NODE":"116.8278","MEAN_ELEMENT_THEORY":"SGP4","MEAN_ANOMALY":"267.5514","SITE":"AFETR","RCS_SIZE":"LARGE","OBJECT_ID":"2022-097T"},{"MEAN_ELEMENT_THEORY":"SGP4","SITE":"AFETR","MEAN_ANOMALY":"270.9920","RCS_SIZE":"LARGE","OBJECT_ID":"2022-097U","FILE":"3787692","OBJECT_NAME":"STARLINK-4533","COUNTRY_CODE":"US","APOAPSIS":"540.674","TLE_LINE2":"2 53406  53.2171 106.9322 0001380  89.1230 270.9920 15.08848378 29403","SEMIMAJOR_AXIS":"6917.855","ECCENTRICITY":"0.00013800","RA_OF_ASC_NODE":"106.9322","TLE_LINE1":"1 53406U 22097U   23043.58904869  .00001829  00000-0  13297-3 0  9994","EPOCH":"2023-02-12T14:08:13.806816","MEAN_MOTION_DDOT":"0.0000000000000","INCLINATION":"53.2171","TIME_SYSTEM":"UTC","GP_ID":"225237791","MEAN_MOTION":"15.08848378","PERIAPSIS":"538.765","CLASSIFICATION_TYPE":"U","EPHEMERIS_TYPE":"0","ARG_OF_PERICENTER":"89.1230","PERIOD":"95.437","BSTAR":"0.00013297000000","REV_AT_EPOCH":"2940","ELEMENT_SET_NO":"999","LAUNCH_DATE":"2022-08-10","CENTER_NAME":"EARTH","NORAD_CAT_ID":"53406","MEAN_MOTION_DOT":"0.00001829","OBJECT_TYPE":"PAYLOAD","DECAY_DATE":null,"REF_FRAME":"TEME"},{"SITE":"AFETR","MEAN_ANOMALY":"272.0618","MEAN_ELEMENT_THEORY":"SGP4","OBJECT_ID":"2022-097V","RCS_SIZE":"LARGE","SEMIMAJOR_AXIS":"6917.897","OBJECT_NAME":"STARLINK-4537","COUNTRY_CODE":"US","FILE":"3787692","TLE_LINE2":"2 53407  53.2176  97.4319 0000929  88.0481 272.0618 15.08834592 29537","APOAPSIS":"540.405","ECCENTRICITY":"0.00009290","RA_OF_ASC_NODE":"97.4319","EPOCH":"2023-02-12T12:44:49.490304","MEAN_MOTION_DDOT":"0.0000000000000","TLE_LINE1":"1 53407U 22097V   23043.53112836 -.00000122  00000-0  10440-4 0  9999","PERIAPSIS":"539.119","MEAN_MOTION":"15.08834592","ARG_OF_PERICENTER":"88.0481","EPHEMERIS_TYPE":"0","CLASSIFICATION_TYPE":"U","INCLINATION":"53.2176","TIME_SYSTEM":"UTC","GP_ID":"225239040","ELEMENT_SET_NO":"999","PERIOD":"95.438","REV_AT_EPOCH":"2953","BSTAR":"0.00001044000000","DECAY_DATE":null,"REF_FRAME":"TEME","OBJECT_TYPE":"PAYLOAD","LAUNCH_DATE":"2022-08-10","CENTER_NAME":"EARTH","NORAD_CAT_ID":"53407","MEAN_MOTION_DOT":"-0.00000122"},{"SEMIMAJOR_AXIS":"6917.891","APOAPSIS":"540.716","TLE_LINE2":"2 53408  53.2169 107.4789 0001388  97.6455 262.4694 15.08836610 29383","FILE":"3787692","COUNTRY_CODE":"US","OBJECT_NAME":"STARLINK-4491","RA_OF_ASC_NODE":"107.4789","ECCENTRICITY":"0.00013880","MEAN_ANOMALY":"262.4694","SITE":"AFETR","MEAN_ELEMENT_THEORY":"SGP4","OBJECT_ID":"2022-097W","RCS_SIZE":"LARGE","ELEMENT_SET_NO":"999","BSTAR":"0.00019014000000","REV_AT_EPOCH":"2938","PERIOD":"95.438","OBJECT_TYPE":"PAYLOAD","REF_FRAME":"TEME","DECAY_DATE":null,"MEAN_MOTION_DOT":"0.00002739","NORAD_CAT_ID":"53408","LAUNCH_DATE":"2022-08-10","CENTER_NAME":"EARTH","MEAN_MOTION_DDOT":"0.0000000000000","EPOCH":"2023-02-12T11:13:21.966240","TLE_LINE1":"1 53408U 22097W   23043.46761535  .00002739  00000-0  19014-3 0  9998","CLASSIFICATION_TYPE":"U","ARG_OF_PERICENTER":"97.6455","EPHEMERIS_TYPE":"0","MEAN_MOTION":"15.08836610","PERIAPSIS":"538.796","TIME_SYSTEM":"UTC","GP_ID":"225239280","INCLINATION":"53.2169"},{"TLE_LINE1":"1 53409U 22097X   23043.85863471  .00001281  00000-0  98517-4 0  9991","MEAN_MOTION_DDOT":"0.0000000000000","EPOCH":"2023-02-12T20:36:26.038944","TIME_SYSTEM":"UTC","GP_ID":"225275021","INCLINATION":"53.2185","CLASSIFICATION_TYPE":"U","EPHEMERIS_TYPE":"0","ARG_OF_PERICENTER":"106.6522","MEAN_MOTION":"15.08843573","PERIAPSIS":"539.106","BSTAR":"0.00009851700000","REV_AT_EPOCH":"2909","PERIOD":"95.437","ELEMENT_SET_NO":"999","MEAN_MOTION_DOT":"0.00001281","NORAD_CAT_ID":"53409","LAUNCH_DATE":"2022-08-10","CENTER_NAME":"EARTH","OBJECT_TYPE":"PAYLOAD","REF_FRAME":"TEME","DECAY_DATE":null,"MEAN_ELEMENT_THEORY":"SGP4","SITE":"AFETR","MEAN_ANOMALY":"253.4570","RCS_SIZE":"LARGE","OBJECT_ID":"2022-097X","APOAPSIS":"540.363","TLE_LINE2":"2 53409  53.2185  95.9212 0000909 106.6522 253.4570 15.08843573 29095","FILE":"3788103","COUNTRY_CODE":"US","OBJECT_NAME":"STARLINK-4490","SEMIMAJOR_AXIS":"6917.869","RA_OF_ASC_NODE":"95.9212","ECCENTRICITY":"0.00009090"},{"RA_OF_ASC_NODE":"105.7073","ECCENTRICITY":"0.00017510","APOAPSIS":"540.970","TLE_LINE2":"2 53410  53.2182 105.7073 0001751  79.9815 280.1375 15.08835540 28951","FILE":"3788103","COUNTRY_CODE":"US","OBJECT_NAME":"STARLINK-4492","SEMIMAJOR_AXIS":"6917.894","RCS_SIZE":"LARGE","OBJECT_ID":"2022-097Y","MEAN_ELEMENT_THEORY":"SGP4","SITE":"AFETR","MEAN_ANOMALY":"280.1375","NORAD_CAT_ID":"53410","MEAN_MOTION_DOT":"-0.00002354","CENTER_NAME":"EARTH","LAUNCH_DATE":"2022-08-10","OBJECT_TYPE":"PAYLOAD","REF_FRAME":"TEME","DECAY_DATE":null,"BSTAR":"-0.00012986000000","REV_AT_EPOCH":"2895","PERIOD":"95.438","ELEMENT_SET_NO":"999","GP_ID":"225275019","TIME_SYSTEM":"UTC","INCLINATION":"53.2182","CLASSIFICATION_TYPE":"U","ARG_OF_PERICENTER":"79.9815","EPHEMERIS_TYPE":"0","MEAN_MOTION":"15.08835540","PERIAPSIS":"538.548","TLE_LINE1":"1 53410U 22097Y   23043.86137861 -.00002354  00000-0 -12986-3 0  9990","MEAN_MOTION_DDOT":"0.0000000000000","EPOCH":"2023-02-12T20:40:23.111904"},{"OBJECT_TYPE":"PAYLOAD","REF_FRAME":"TEME","DECAY_DATE":null,"NORAD_CAT_ID":"53411","MEAN_MOTION_DOT":"0.00001094","LAUNCH_DATE":"2022-08-10","CENTER_NAME":"EARTH","ELEMENT_SET_NO":"999","BSTAR":"0.00008679500000","REV_AT_EPOCH":"2895","PERIOD":"95.438","CLASSIFICATION_TYPE":"U","ARG_OF_PERICENTER":"76.9323","EPHEMERIS_TYPE":"0","MEAN_MOTION":"15.08840682","PERIAPSIS":"538.624","TIME_SYSTEM":"UTC","GP_ID":"225275014","INCLINATION":"53.2166","MEAN_MOTION_DDOT":"0.0000000000000","EPOCH":"2023-02-12T20:50:58.909632","TLE_LINE1":"1 53411U 22097Z   23043.86873738  .00001094  00000-0  86795-4 0  9999","RA_OF_ASC_NODE":"105.6759","ECCENTRICITY":"0.00016180","SEMIMAJOR_AXIS":"6917.878","APOAPSIS":"540.863","TLE_LINE2":"2 53411  53.2166 105.6759 0001618  76.9323 283.1850 15.08840682 28951","FILE":"3788103","COUNTRY_CODE":"US","OBJECT_NAME":"STARLINK-4497","OBJECT_ID":"2022-097Z","RCS_SIZE":"LARGE","MEAN_ANOMALY":"283.1850","SITE":"AFETR","MEAN_ELEMENT_THEORY":"SGP4"}];
